start=new Date('2021-12-06T00:00:00.000Z').valueOf();
sats=[{"TIME_SYSTEM":"UTC","TLE_LINE1":"1 46559U 20070AD  21339.94626536  .00001226  00000-0  10124-3 0  9999","SEMIMAJOR_AXIS":"6925.373","OBJECT_NAME":"STARLINK-1681","ARG_OF_PERICENTER":"60.6796","CLASSIFICATION_TYPE":"U","BSTAR":"0.00010124000000","APOAPSIS":"548.548","PERIAPSIS":"545.929","RCS_SIZE":"LARGE","OBJECT_ID":"2020-070AD","TLE_LINE2":"2 46559  53.0550 286.1321 0001891  60.6796 299.4381 15.06391975 65581","INCLINATION":"53.0550","PERIOD":"95.593","EPHEMERIS_TYPE":"0","OBJECT_TYPE":"PAYLOAD","FILE":"3233515","RA_OF_ASC_NODE":"286.1321","MEAN_MOTION_DDOT":"0.0000000000000","COUNTRY_CODE":"US","ECCENTRICITY":"0.00018910","CENTER_NAME":"EARTH","DECAY_DATE":null,"MEAN_ELEMENT_THEORY":"SGP4","REF_FRAME":"TEME","SITE":"AFETR","EPOCH":"2021-12-05T22:42:37.327104","NORAD_CAT_ID":"46559","REV_AT_EPOCH":"6558","GP_ID":"191169919","LAUNCH_DATE":"2020-10-06","ELEMENT_SET_NO":"999","MEAN_MOTION_DOT":"0.00001226","MEAN_ANOMALY":"299.4381","MEAN_MOTION":"15.06391975"},{"SEMIMAJOR_AXIS":"6925.363","TLE_LINE1":"1 46560U 20070AE  21339.64079669  .00000505  00000-0  52794-4 0  9996","TIME_SYSTEM":"UTC","PERIAPSIS":"545.969","APOAPSIS":"548.487","BSTAR":"0.00005279400000","CLASSIFICATION_TYPE":"U","ARG_OF_PERICENTER":"61.9663","OBJECT_NAME":"STARLINK-1706","PERIOD":"95.592","INCLINATION":"53.0539","OBJECT_ID":"2020-070AE","TLE_LINE2":"2 46560  53.0539 302.5141 0001818  61.9663 298.1510 15.06395258 65330","RCS_SIZE":"LARGE","RA_OF_ASC_NODE":"302.5141","MEAN_MOTION_DDOT":"0.0000000000000","FILE":"3233515","OBJECT_TYPE":"PAYLOAD","EPHEMERIS_TYPE":"0","DECAY_DATE":null,"CENTER_NAME":"EARTH","ECCENTRICITY":"0.00018180","COUNTRY_CODE":"US","EPOCH":"2021-12-05T15:22:44.834016","SITE":"AFETR","REF_FRAME":"TEME","MEAN_ELEMENT_THEORY":"SGP4","GP_ID":"191171171","REV_AT_EPOCH":"6533","NORAD_CAT_ID":"46560","MEAN_MOTION":"15.06395258","MEAN_ANOMALY":"298.1510","MEAN_MOTION_DOT":"0.00000505","ELEMENT_SET_NO":"999","LAUNCH_DATE":"2020-10-06"},{"NORAD_CAT_ID":"46561","GP_ID":"191138782","REV_AT_EPOCH":"6529","ELEMENT_SET_NO":"999","MEAN_MOTION_DOT":"0.00004510","LAUNCH_DATE":"2020-10-06","MEAN_ANOMALY":"286.3737","MEAN_MOTION":"15.06368313","COUNTRY_CODE":"US","ECCENTRICITY":"0.00022520","CENTER_NAME":"EARTH","DECAY_DATE":null,"SITE":"AFETR","MEAN_ELEMENT_THEORY":"SGP4","REF_FRAME":"TEME","EPOCH":"2021-12-05T09:21:50.006304","RCS_SIZE":"LARGE","PERIOD":"95.594","OBJECT_ID":"2020-070AF","TLE_LINE2":"2 46561  53.0554 303.6384 0002252  73.7500 286.3737 15.06368313 65290","INCLINATION":"53.0554","OBJECT_TYPE":"PAYLOAD","EPHEMERIS_TYPE":"0","FILE":"3233179","RA_OF_ASC_NODE":"303.6384","MEAN_MOTION_DDOT":"0.0000000000000","TIME_SYSTEM":"UTC","TLE_LINE1":"1 46561U 20070AF  21339.39016211  .00004510  00000-0  32174-3 0  9992","SEMIMAJOR_AXIS":"6925.446","OBJECT_NAME":"STARLINK-1709","BSTAR":"0.00032174000000","PERIAPSIS":"545.751","APOAPSIS":"548.870","ARG_OF_PERICENTER":"73.7500","CLASSIFICATION_TYPE":"U"},{"NORAD_CAT_ID":"46562","GP_ID":"191169669","REV_AT_EPOCH":"6539","ELEMENT_SET_NO":"999","MEAN_MOTION_DOT":"0.00000373","LAUNCH_DATE":"2020-10-06","MEAN_ANOMALY":"311.1233","MEAN_MOTION":"15.06393904","COUNTRY_CODE":"US","ECCENTRICITY":"0.00020970","CENTER_NAME":"EARTH","DECAY_DATE":null,"SITE":"AFETR","MEAN_ELEMENT_THEORY":"SGP4","REF_FRAME":"TEME","EPOCH":"2021-12-05T14:11:45.289824","RCS_SIZE":"LARGE","PERIOD":"95.593","OBJECT_ID":"2020-070AG","TLE_LINE2":"2 46562  53.0555 297.7311 0002097  48.9937 311.1233 15.06393904 65393","INCLINATION":"53.0555","OBJECT_TYPE":"PAYLOAD","EPHEMERIS_TYPE":"0","FILE":"3233515","MEAN_MOTION_DDOT":"0.0000000000000","RA_OF_ASC_NODE":"297.7311","TIME_SYSTEM":"UTC","TLE_LINE1":"1 46562U 20070AG  21339.59149641  .00000373  00000-0  43972-4 0  9991","SEMIMAJOR_AXIS":"6925.367","OBJECT_NAME":"STARLINK-1714","BSTAR":"0.00004397200000","PERIAPSIS":"545.780","APOAPSIS":"548.684","ARG_OF_PERICENTER":"48.9937","CLASSIFICATION_TYPE":"U"},{"SITE":"AFETR","REF_FRAME":"TEME","MEAN_ELEMENT_THEORY":"SGP4","EPOCH":"2021-12-05T08:58:35.858496","ECCENTRICITY":"0.00017800","COUNTRY_CODE":"US","DECAY_DATE":null,"CENTER_NAME":"EARTH","ELEMENT_SET_NO":"999","MEAN_MOTION_DOT":"0.00001187","LAUNCH_DATE":"2020-10-06","MEAN_MOTION":"15.06393433","MEAN_ANOMALY":"300.9694","NORAD_CAT_ID":"46563","GP_ID":"191139283","REV_AT_EPOCH":"6536","OBJECT_NAME":"STARLINK-1730","PERIAPSIS":"546.001","APOAPSIS":"548.466","BSTAR":"0.00009856400000","ARG_OF_PERICENTER":"59.1470","CLASSIFICATION_TYPE":"U","TLE_LINE1":"1 46563U 20070AH  21339.37402614  .00001187  00000-0  98564-4 0  9991","TIME_SYSTEM":"UTC","SEMIMAJOR_AXIS":"6925.369","OBJECT_TYPE":"PAYLOAD","EPHEMERIS_TYPE":"0","MEAN_MOTION_DDOT":"0.0000000000000","RA_OF_ASC_NODE":"298.6895","FILE":"3233179","RCS_SIZE":"LARGE","PERIOD":"95.593","INCLINATION":"53.0535","TLE_LINE2":"2 46563  53.0535 298.6895 0001780  59.1470 300.9694 15.06393433 65364","OBJECT_ID":"2020-070AH"},{"GP_ID":"191170671","REV_AT_EPOCH":"6540","NORAD_CAT_ID":"46564","MEAN_MOTION":"15.06405741","MEAN_ANOMALY":"306.2631","MEAN_MOTION_DOT":"0.00004252","ELEMENT_SET_NO":"999","LAUNCH_DATE":"2020-10-06","DECAY_DATE":null,"CENTER_NAME":"EARTH","ECCENTRICITY":"0.00021860","COUNTRY_CODE":"US","EPOCH":"2021-12-05T14:54:12.766176","SITE":"AFETR","REF_FRAME":"TEME","MEAN_ELEMENT_THEORY":"SGP4","PERIOD":"95.592","INCLINATION":"53.0548","OBJECT_ID":"2020-070AJ","TLE_LINE2":"2 46564  53.0548 297.6009 0002186  53.8560 306.2631 15.06405741 65408","RCS_SIZE":"LARGE","RA_OF_ASC_NODE":"297.6009","MEAN_MOTION_DDOT":"0.0000000000000","FILE":"3233515","OBJECT_TYPE":"PAYLOAD","EPHEMERIS_TYPE":"0","SEMIMAJOR_AXIS":"6925.331","TLE_LINE1":"1 46564U 20070AJ  21339.62098109  .00004252  00000-0  30414-3 0  9995","TIME_SYSTEM":"UTC","PERIAPSIS":"545.682","APOAPSIS":"548.710","BSTAR":"0.00030414000000","CLASSIFICATION_TYPE":"U","ARG_OF_PERICENTER":"53.8560","OBJECT_NAME":"STARLINK-1733"},{"SEMIMAJOR_AXIS":"6925.360","TIME_SYSTEM":"UTC","TLE_LINE1":"1 46565U 20070AK  21339.59886761  .00001253  00000-0  10303-3 0  9994","BSTAR":"0.00010303000000","PERIAPSIS":"545.999","APOAPSIS":"548.450","CLASSIFICATION_TYPE":"U","ARG_OF_PERICENTER":"57.5888","OBJECT_NAME":"STARLINK-1735","PERIOD":"95.592","TLE_LINE2":"2 46565  53.0654 297.6492 0001770  57.5888 302.5272 15.06396367 65396","OBJECT_ID":"2020-070AK","INCLINATION":"53.0654","RCS_SIZE":"LARGE","FILE":"3233515","RA_OF_ASC_NODE":"297.6492","MEAN_MOTION_DDOT":"0.0000000000000","OBJECT_TYPE":"PAYLOAD","EPHEMERIS_TYPE":"0","CENTER_NAME":"EARTH","DECAY_DATE":null,"COUNTRY_CODE":"US","ECCENTRICITY":"0.00017700","EPOCH":"2021-12-05T14:22:22.161504","SITE":"AFETR","REF_FRAME":"TEME","MEAN_ELEMENT_THEORY":"SGP4","GP_ID":"191171422","REV_AT_EPOCH":"6539","NORAD_CAT_ID":"46565","MEAN_ANOMALY":"302.5272","MEAN_MOTION":"15.06396367","ELEMENT_SET_NO":"999","MEAN_MOTION_DOT":"0.00001253","LAUNCH_DATE":"2020-10-06"},{"MEAN_MOTION_DDOT":"0.0000000000000","RA_OF_ASC_NODE":"297.7700","FILE":"3233515","EPHEMERIS_TYPE":"0","OBJECT_TYPE":"PAYLOAD","INCLINATION":"53.0536","OBJECT_ID":"2020-070AL","TLE_LINE2":"2 46566  53.0536 297.7700 0001912  56.7508 303.3664 15.06394298 65392","PERIOD":"95.593","RCS_SIZE":"LARGE","CLASSIFICATION_TYPE":"U","ARG_OF_PERICENTER":"56.7508","PERIAPSIS":"545.907","APOAPSIS":"548.555","BSTAR":"0.00012389000000","OBJECT_NAME":"STARLINK-1740","SEMIMAJOR_AXIS":"6925.366","TLE_LINE1":"1 46566U 20070AL  21339.58412203  .00001564  00000-0  12389-3 0  9991","TIME_SYSTEM":"UTC","MEAN_MOTION":"15.06394298","MEAN_ANOMALY":"303.3664","LAUNCH_DATE":"2020-10-06","MEAN_MOTION_DOT":"0.00001564","ELEMENT_SET_NO":"999","REV_AT_EPOCH":"6539","GP_ID":"191170170","NORAD_CAT_ID":"46566","EPOCH":"2021-12-05T14:01:08.143392","MEAN_ELEMENT_THEORY":"SGP4","REF_FRAME":"TEME","SITE":"AFETR","DECAY_DATE":null,"CENTER_NAME":"EARTH","COUNTRY_CODE":"US","ECCENTRICITY":"0.00019120"},{"SEMIMAJOR_AXIS":"6925.356","TLE_LINE1":"1 46567U 20070AM  21339.61361319  .00000659  00000-0  63177-4 0  9993","TIME_SYSTEM":"UTC","PERIAPSIS":"545.851","APOAPSIS":"548.591","BSTAR":"0.00006317700000","CLASSIFICATION_TYPE":"U","ARG_OF_PERICENTER":"59.6197","OBJECT_NAME":"STARLINK-1741","PERIOD":"95.592","INCLINATION":"53.0558","OBJECT_ID":"2020-070AM","TLE_LINE2":"2 46567  53.0558 297.6394 0001978  59.6197 300.4987 15.06397630 65404","RCS_SIZE":"LARGE","RA_OF_ASC_NODE":"297.6394","MEAN_MOTION_DDOT":"0.0000000000000","FILE":"3233515","OBJECT_TYPE":"PAYLOAD","EPHEMERIS_TYPE":"0","DECAY_DATE":null,"CENTER_NAME":"EARTH","COUNTRY_CODE":"US","ECCENTRICITY":"0.00019780","EPOCH":"2021-12-05T14:43:36.179616","SITE":"AFETR","REF_FRAME":"TEME","MEAN_ELEMENT_THEORY":"SGP4","GP_ID":"191169920","REV_AT_EPOCH":"6540","NORAD_CAT_ID":"46567","MEAN_MOTION":"15.06397630","MEAN_ANOMALY":"300.4987","ELEMENT_SET_NO":"999","MEAN_MOTION_DOT":"0.00000659","LAUNCH_DATE":"2020-10-06"},{"OBJECT_NAME":"STARLINK-1743","APOAPSIS":"439.104","PERIAPSIS":"428.857","BSTAR":"0.00078060000000","ARG_OF_PERICENTER":"9.1879","CLASSIFICATION_TYPE":"U","TLE_LINE1":"1 46568U 20070AN  21339.58696976  .00036064  00000-0  78060-3 0  9995","TIME_SYSTEM":"UTC","SEMIMAJOR_AXIS":"6812.116","OBJECT_TYPE":"PAYLOAD","EPHEMERIS_TYPE":"0","RA_OF_ASC_NODE":"293.6809","MEAN_MOTION_DDOT":"0.0000000000000","FILE":"3233515","RCS_SIZE":"LARGE","PERIOD":"93.257","INCLINATION":"53.0542","OBJECT_ID":"2020-070AN","TLE_LINE2":"2 46568  53.0542 293.6809 0007521   9.1879 350.9263 15.44115391 65458","SITE":"AFETR","REF_FRAME":"TEME","MEAN_ELEMENT_THEORY":"SGP4","EPOCH":"2021-12-05T14:05:14.187264","ECCENTRICITY":"0.00075210","COUNTRY_CODE":"US","DECAY_DATE":null,"CENTER_NAME":"EARTH","ELEMENT_SET_NO":"999","MEAN_MOTION_DOT":"0.00036064","LAUNCH_DATE":"2020-10-06","MEAN_MOTION":"15.44115391","MEAN_ANOMALY":"350.9263","NORAD_CAT_ID":"46568","GP_ID":"191171172","REV_AT_EPOCH":"6545"}];
